{
  "type": "FeatureCollection",
  "features": [
    {
      "type": "Feature",
      "properties": {
        "norad_id": 55973,
        "name": "TIANMU-1 03",
        "group": "weather",
        "lat": 44.7464584730689,
        "lon": 146.642398025621,
        "alt_km": 436.37337207901237,
        "timestamp": "2025-12-17T09:00:16.788338+00:00",
        "meta_object_name": "TIANMU-1 03",
        "meta_object_id": "2023-039A",
        "meta_epoch": "2025-12-16T23:27:31.794912",
        "meta_mean_motion": 15.41048185,
        "meta_eccentricity": 0.00042018,
        "meta_inclination": 97.5101,
        "meta_ra_of_asc_node": 153.7473,
        "meta_arg_of_pericenter": 49.1814,
        "meta_mean_anomaly": 310.9796,
        "meta_ephemeris_type": 0,
        "meta_classification_type": "U",
        "meta_norad_cat_id": 55973,
        "meta_element_set_no": 999,
        "meta_rev_at_epoch": 15271,
        "meta_bstar": 0.00029890814,
        "meta_mean_motion_dot": 0.00012265,
        "meta_mean_motion_ddot": 0,
        "tle_line1": "1 55973U 23039A   25350.97745133  .00012265  00000+0  29891-3 0  9997",
        "tle_line2": "2 55973  97.5101 153.7473 0004201  49.1814 310.9796 15.41048185152716"
      },
      "geometry": {
        "type": "Point",
        "coordinates": [
          146.642398025621,
          44.7464584730689
        ]
      }
    },
    {
      "type": "Feature",
      "properties": {
        "norad_id": 55974,
        "name": "TIANMU-1 04",
        "group": "weather",
        "lat": 14.780201959980815,
        "lon": -24.661803541339324,
        "alt_km": 444.783743353044,
        "timestamp": "2025-12-17T09:00:16.788357+00:00",
        "meta_object_name": "TIANMU-1 04",
        "meta_object_id": "2023-039B",
        "meta_epoch": "2025-12-17T00:30:04.921920",
        "meta_mean_motion": 15.41388813,
        "meta_eccentricity": 0.0004869,
        "meta_inclination": 97.5033,
        "meta_ra_of_asc_node": 152.9813,
        "meta_arg_of_pericenter": 43.3559,
        "meta_mean_anomaly": 316.807,
        "meta_ephemeris_type": 0,
        "meta_classification_type": "U",
        "meta_norad_cat_id": 55974,
        "meta_element_set_no": 999,
        "meta_rev_at_epoch": 15272,
        "meta_bstar": 0.00031983575,
        "meta_mean_motion_dot": 0.00013282,
        "meta_mean_motion_ddot": 0,
        "tle_line1": "1 55974U 23039B   25351.02089030  .00013282  00000+0  31984-3 0  9998",
        "tle_line2": "2 55974  97.5033 152.9813 0004869  43.3559 316.8070 15.41388813152728"
      },
      "geometry": {
        "type": "Point",
        "coordinates": [
          -24.661803541339324,
          14.780201959980815
        ]
      }
    },
    {
      "type": "Feature",
      "properties": {
        "norad_id": 55975,
        "name": "TIANMU-1 05",
        "group": "weather",
        "lat": -10.552206698609584,
        "lon": -27.56984833103123,
        "alt_km": 449.15676366664684,
        "timestamp": "2025-12-17T09:00:16.788374+00:00",
        "meta_object_name": "TIANMU-1 05",
        "meta_object_id": "2023-039C",
        "meta_epoch": "2025-12-17T00:23:19.184928",
        "meta_mean_motion": 15.41006729,
        "meta_eccentricity": 0.00042516,
        "meta_inclination": 97.5079,
        "meta_ra_of_asc_node": 153.4691,
        "meta_arg_of_pericenter": 66.6696,
        "meta_mean_anomaly": 293.4997,
        "meta_ephemeris_type": 0,
        "meta_classification_type": "U",
        "meta_norad_cat_id": 55975,
        "meta_element_set_no": 999,
        "meta_rev_at_epoch": 15270,
        "meta_bstar": 0.00031517875,
        "meta_mean_motion_dot": 0.00012921,
        "meta_mean_motion_ddot": 0,
        "tle_line1": "1 55975U 23039C   25351.01619427  .00012921  00000+0  31518-3 0  9999",
        "tle_line2": "2 55975  97.5079 153.4691 0004251  66.6696 293.4997 15.41006729152703"
      },
      "geometry": {
        "type": "Point",
        "coordinates": [
          -27.56984833103123,
          -10.552206698609584
        ]
      }
    },
    {
      "type": "Feature",
      "properties": {
        "norad_id": 55976,
        "name": "TIANMU-1 06",
        "group": "weather",
        "lat": 25.864765368423427,
        "lon": -22.026723538711767,
        "alt_km": 441.275857998653,
        "timestamp": "2025-12-17T09:00:16.788390+00:00",
        "meta_object_name": "TIANMU-1 06",
        "meta_object_id": "2023-039D",
        "meta_epoch": "2025-12-17T00:33:00.397728",
        "meta_mean_motion": 15.41440812,
        "meta_eccentricity": 0.00045424,
        "meta_inclination": 97.509,
        "meta_ra_of_asc_node": 153.9445,
        "meta_arg_of_pericenter": 61.1935,
        "meta_mean_anomaly": 298.9767,
        "meta_ephemeris_type": 0,
        "meta_classification_type": "U",
        "meta_norad_cat_id": 55976,
        "meta_element_set_no": 999,
        "meta_rev_at_epoch": 15272,
        "meta_bstar": 0.0003206903,
        "meta_mean_motion_dot": 0.00013341,
        "meta_mean_motion_ddot": 0,
        "tle_line1": "1 55976U 23039D   25351.02292127  .00013341  00000+0  32069-3 0  9994",
        "tle_line2": "2 55976  97.5090 153.9445 0004542  61.1935 298.9767 15.41440812152720"
      },
      "geometry": {
        "type": "Point",
        "coordinates": [
          -22.026723538711767,
          25.864765368423427
        ]
      }
    },
    {
      "type": "Feature",
      "properties": {
        "norad_id": 56232,
        "name": "FENGYUN 3G",
        "group": "weather",
        "lat": 43.334683534023604,
        "lon": -28.887407406509624,
        "alt_km": 395.3893751456999,
        "timestamp": "2025-12-17T09:00:16.788406+00:00",
        "meta_object_name": "FENGYUN 3G",
        "meta_object_id": "2023-055A",
        "meta_epoch": "2025-12-16T23:14:46.987296",
        "meta_mean_motion": 15.53899579,
        "meta_eccentricity": 0.0009334,
        "meta_inclination": 49.9926,
        "meta_ra_of_asc_node": 205.6291,
        "meta_arg_of_pericenter": 167.6048,
        "meta_mean_anomaly": 192.5151,
        "meta_ephemeris_type": 0,
        "meta_classification_type": "U",
        "meta_norad_cat_id": 56232,
        "meta_element_set_no": 999,
        "meta_rev_at_epoch": 15168,
        "meta_bstar": 0.00038747736,
        "meta_mean_motion_dot": 0.0002512,
        "meta_mean_motion_ddot": 0,
        "tle_line1": "1 56232U 23055A   25350.96859939  .00025120  00000+0  38748-3 0  9998",
        "tle_line2": "2 56232  49.9926 205.6291 0009334 167.6048 192.5151 15.53899579151681"
      },
      "geometry": {
        "type": "Point",
        "coordinates": [
          -28.887407406509624,
          43.334683534023604
        ]
      }
    },
    {
      "type": "Feature",
      "properties": {
        "norad_id": 57166,
        "name": "METEOR-M2 3",
        "group": "weather",
        "lat": -56.45631584285493,
        "lon": -148.42069984891654,
        "alt_km": 820.0337527459569,
        "timestamp": "2025-12-17T09:00:16.788426+00:00",
        "meta_object_name": "METEOR-M2 3",
        "meta_object_id": "2023-091A",
        "meta_epoch": "2025-12-16T23:27:41.182272",
        "meta_mean_motion": 14.24026559,
        "meta_eccentricity": 0.00036612,
        "meta_inclination": 98.6375,
        "meta_ra_of_asc_node": 44.4428,
        "meta_arg_of_pericenter": 356.4307,
        "meta_mean_anomaly": 3.6846,
        "meta_ephemeris_type": 0,
        "meta_classification_type": "U",
        "meta_norad_cat_id": 57166,
        "meta_element_set_no": 999,
        "meta_rev_at_epoch": 12858,
        "meta_bstar": 2.1417615e-05,
        "meta_mean_motion_dot": 6e-08,
        "meta_mean_motion_ddot": 0,
        "tle_line1": "1 57166U 23091A   25350.97755998  .00000006  00000+0  21418-4 0  9999",
        "tle_line2": "2 57166  98.6375  44.4428 0003661 356.4307   3.6846 14.24026559128584"
      },
      "geometry": {
        "type": "Point",
        "coordinates": [
          -148.42069984891654,
          -56.45631584285493
        ]
      }
    },
    {
      "type": "Feature",
      "properties": {
        "norad_id": 57399,
        "name": "TIANMU-1 07",
        "group": "weather",
        "lat": -1.7984082099408123,
        "lon": 41.35350094952512,
        "alt_km": 483.5015972500132,
        "timestamp": "2025-12-17T09:00:16.788443+00:00",
        "meta_object_name": "TIANMU-1 07",
        "meta_object_id": "2023-101A",
        "meta_epoch": "2025-12-16T23:34:59.676096",
        "meta_mean_motion": 15.28133222,
        "meta_eccentricity": 0.00054501,
        "meta_inclination": 97.2878,
        "meta_ra_of_asc_node": 40.7393,
        "meta_arg_of_pericenter": 70.7921,
        "meta_mean_anomaly": 289.3908,
        "meta_ephemeris_type": 0,
        "meta_classification_type": "U",
        "meta_norad_cat_id": 57399,
        "meta_element_set_no": 999,
        "meta_rev_at_epoch": 13380,
        "meta_bstar": 0.00021445216,
        "meta_mean_motion_dot": 5.811e-05,
        "meta_mean_motion_ddot": 0,
        "tle_line1": "1 57399U 23101A   25350.98263514  .00005811  00000+0  21445-3 0  9996",
        "tle_line2": "2 57399  97.2878  40.7393 0005450  70.7921 289.3908 15.28133222133805"
      },
      "geometry": {
        "type": "Point",
        "coordinates": [
          41.35350094952512,
          -1.7984082099408123
        ]
      }
    }
  ]
}